CCSDS_CDM_VERS                     = 1.0
CREATION_DATE                      = 2013-08-30T19:48:06.000
ORIGINATOR                         = JSPOC
MESSAGE_ID                         = 12345_conj_54321_20130906_083923_20130830_194806
TCA                                = 2013-09-06T08:39:23.593
MISS_DISTANCE                      = 1169.414973              [m]
RELATIVE_SPEED                     = 14975.124144969          [m/s]
RELATIVE_POSITION_R                = 3.103076                 [m]
RELATIVE_POSITION_T                = -95.298916               [m]
RELATIVE_POSITION_N                = -1165.521285             [m]
RELATIVE_VELOCITY_R                = 60.015094                [m]
RELATIVE_VELOCITY_T                = 14925.708765             [m]
RELATIVE_VELOCITY_N                = -1214.067221             [m]
COMMENT HBR                        = 20.0
OBJECT                             = OBJECT1
OBJECT_DESIGNATOR                  = 12345
CATALOG_NAME                       = SATCAT
OBJECT_NAME                        = 12345
INTERNATIONAL_DESIGNATOR           = 12345
EPHEMERIS_NAME                     = NONE
COVARIANCE_METHOD                  = CALCULATED
MANEUVERABLE                       = YES
REF_FRAME                          = EME2000
GRAVITY_MODEL                      = EGM-96: 36D 36O
ATMOSPHERIC_MODEL                  = JBH09
N_BODY_PERTURBATIONS               = MOON,SUN
SOLAR_RAD_PRESSURE                 = YES
EARTH_TIDES                        = YES
INTRACK_THRUST                     = NO
TIME_LASTOB_START                  = 2013-08-30T16:36:14.375
TIME_LASTOB_END                    = 2013-08-30T16:36:14.375
RECOMMENDED_OD_SPAN                = NaN                      [d]
ACTUAL_OD_SPAN                     = NaN                      [d]
OBS_AVAILABLE                      = NaN
OBS_USED                           = NaN
TRACKS_AVAILABLE                   = NaN
TRACKS_USED                        = NaN
RESIDUALS_ACCEPTED                 = NaN                      [%]
WEIGHTED_RMS                       = NaN
COMMENT Apogee Altitude            = 728000   [km]
COMMENT Perigee Altitude           = 711000   [km]
COMMENT Inclination                = 1.7122   [deg]
AREA_PC                            = NaN                      [m**2]
CD_AREA_OVER_MASS                  = NaN                      [m**2/kg]
CR_AREA_OVER_MASS                  = NaN                      [m**2/kg]
SEDR                               = NaN                      [W/kg]
X                                  = -3802.232572             [km]
Y                                  = 4720.000417              [km]
Z                                  = -3676.847773             [km]
X_DOT                              = 3.363036829              [km/s]
Y_DOT                              = -2.209266805             [km/s]
Z_DOT                              = -6.322865860             [km/s]
CR_R                               = 3.387000000000121e+02    [m**2]
CT_R                               = -1.213000000000000e+03   [m**2]
CT_T                               = 3.894999999999999e+05    [m**2]
CN_R                               = 1.543000000001494e+01    [m**2]
CN_T                               = 1.023999999999975e+02    [m**2]
CN_N                               = 6.560000000000376e+01    [m**2]
CRDOT_R                            = 0.000000000000000e+00    [m**2/s]
CRDOT_T                            = 0.000000000000000e+00    [m**2/s]
CRDOT_N                            = 0.000000000000000e+00    [m**2/s]
CRDOT_RDOT                         = 0.000000000000000e+00    [m**2/s**2]
CTDOT_R                            = 0.000000000000000e+00    [m**2/s]
CTDOT_T                            = 0.000000000000000e+00    [m**2/s]
CTDOT_N                            = 0.000000000000000e+00    [m**2/s]
CTDOT_RDOT                         = 0.000000000000000e+00    [m**2/s**2]
CTDOT_TDOT                         = 0.000000000000000e+00    [m**2/s**2]
CNDOT_R                            = 0.000000000000000e+00    [m**2/s]
CNDOT_T                            = 0.000000000000000e+00    [m**2/s]
CNDOT_N                            = 0.000000000000000e+00    [m**2/s]
CNDOT_RDOT                         = 0.000000000000000e+00    [m**2/s**2]
CNDOT_TDOT                         = 0.000000000000000e+00    [m**2/s**2]
CNDOT_NDOT                         = 0.000000000000000e+00    [m**2/s**2]
CDRG_R                             = 0.000000000000000e+00    [m**3/kg]
CDRG_T                             = 0.000000000000000e+00    [m**3/kg]
CDRG_N                             = 0.000000000000000e+00    [m**3/kg]
CDRG_RDOT                          = 0.000000000000000e+00    [m**3/(kg*s)]
CDRG_TDOT                          = 0.000000000000000e+00    [m**3/(kg*s)]
CDRG_NDOT                          = 0.000000000000000e+00    [m**3/(kg*s)]
CDRG_DRG                           = 1.000000000000000e-12    [m**4/kg**2]
CSRP_R                             = 0.000000000000000e+00    [m**3/kg]
CSRP_T                             = 0.000000000000000e+00    [m**3/kg]
CSRP_N                             = 0.000000000000000e+00    [m**3/kg]
CSRP_RDOT                          = 0.000000000000000e+00    [m**3/(kg*s)]
CSRP_TDOT                          = 0.000000000000000e+00    [m**3/(kg*s)]
CSRP_NDOT                          = 0.000000000000000e+00    [m**3/(kg*s)]
CSRP_DRG                           = 0.000000000000000e+00    [m**4/kg**2]
CSRP_SRP                           = 1.000000000000000e-12    [m**4/kg**2]
OBJECT                             = OBJECT2
OBJECT_DESIGNATOR                  = 54321
CATALOG_NAME                       = SATCAT
OBJECT_NAME                        = 54321
INTERNATIONAL_DESIGNATOR           = 54321
EPHEMERIS_NAME                     = NONE
COVARIANCE_METHOD                  = CALCULATED
MANEUVERABLE                       = YES
REF_FRAME                          = EME2000
GRAVITY_MODEL                      = EGM-96: 36D 36O
ATMOSPHERIC_MODEL                  = JBH09
N_BODY_PERTURBATIONS               = MOON,SUN
SOLAR_RAD_PRESSURE                 = YES
EARTH_TIDES                        = YES
INTRACK_THRUST                     = NO
TIME_LASTOB_START                  = 2013-08-23T04:10:00.000
TIME_LASTOB_END                    = 2013-08-23T04:10:00.000
RECOMMENDED_OD_SPAN                = NaN                      [d]
ACTUAL_OD_SPAN                     = NaN                      [d]
OBS_AVAILABLE                      = NaN
OBS_USED                           = NaN
TRACKS_AVAILABLE                   = NaN
TRACKS_USED                        = NaN
RESIDUALS_ACCEPTED                 = NaN                      [%]
WEIGHTED_RMS                       = NaN
COMMENT Apogee Altitude            = 850000   [km]
COMMENT Perigee Altitude           = 691000   [km]
COMMENT Inclination                = 1.2915   [deg]
AREA_PC                            = NaN                      [m**2]
CD_AREA_OVER_MASS                  = NaN                      [m**2/kg]
CR_AREA_OVER_MASS                  = NaN                      [m**2/kg]
SEDR                               = NaN                      [W/kg]
X                                  = -3803.021006             [km]
Y                                  = 4719.171563              [km]
Z                                  = -3677.090477             [km]
X_DOT                              = -4.174950964             [km/s]
Y_DOT                              = 1.324905095              [km/s]
Z_DOT                              = 6.124732791              [km/s]
CR_R                               = 6.505999999999749e+05    [m**2]
CT_R                               = 1.540000000000006e+07    [m**2]
CT_T                               = 5.965999999999999e+08    [m**2]
CN_R                               = -3.021999999999974e+06   [m**2]
CN_T                               = -7.986000000000000e+07   [m**2]
CN_N                               = 1.559999999999997e+07    [m**2]
CRDOT_R                            = 0.000000000000000e+00    [m**2/s]
CRDOT_T                            = 0.000000000000000e+00    [m**2/s]
CRDOT_N                            = 0.000000000000000e+00    [m**2/s]
CRDOT_RDOT                         = 0.000000000000000e+00    [m**2/s**2]
CTDOT_R                            = 0.000000000000000e+00    [m**2/s]
CTDOT_T                            = 0.000000000000000e+00    [m**2/s]
CTDOT_N                            = 0.000000000000000e+00    [m**2/s]
CTDOT_RDOT                         = 0.000000000000000e+00    [m**2/s**2]
CTDOT_TDOT                         = 0.000000000000000e+00    [m**2/s**2]
CNDOT_R                            = 0.000000000000000e+00    [m**2/s]
CNDOT_T                            = 0.000000000000000e+00    [m**2/s]
CNDOT_N                            = 0.000000000000000e+00    [m**2/s]
CNDOT_RDOT                         = 0.000000000000000e+00    [m**2/s**2]
CNDOT_TDOT                         = 0.000000000000000e+00    [m**2/s**2]
CNDOT_NDOT                         = 0.000000000000000e+00    [m**2/s**2]
CDRG_R                             = 0.000000000000000e+00    [m**3/kg]
CDRG_T                             = 0.000000000000000e+00    [m**3/kg]
CDRG_N                             = 0.000000000000000e+00    [m**3/kg]
CDRG_RDOT                          = 0.000000000000000e+00    [m**3/(kg*s)]
CDRG_TDOT                          = 0.000000000000000e+00    [m**3/(kg*s)]
CDRG_NDOT                          = 0.000000000000000e+00    [m**3/(kg*s)]
CDRG_DRG                           = 1.000000000000000e-12    [m**4/kg**2]
CSRP_R                             = 0.000000000000000e+00    [m**3/kg]
CSRP_T                             = 0.000000000000000e+00    [m**3/kg]
CSRP_N                             = 0.000000000000000e+00    [m**3/kg]
CSRP_RDOT                          = 0.000000000000000e+00    [m**3/(kg*s)]
CSRP_TDOT                          = 0.000000000000000e+00    [m**3/(kg*s)]
CSRP_NDOT                          = 0.000000000000000e+00    [m**3/(kg*s)]
CSRP_DRG                           = 0.000000000000000e+00    [m**4/kg**2]
CSRP_SRP                           = 1.000000000000000e-12    [m**4/kg**2]
